NORAD_CAT_ID,OBJECT_NAME,OBJECT_TYPE,EPOCH,MEAN_MOTION,ECCENTRICITY,INCLINATION,RA_OF_ASC_NODE,ARG_OF_PERICENTER,MEAN_ANOMALY,BSTAR,MEAN_MOTION_DOT,MEAN_MOTION_DDOT,TLE_LINE0,TLE_LINE1,TLE_LINE2,SEMIMAJOR_AXIS,PERIOD,APOGEE,PERIGEE,DECAYED
55429.0,STARLINK-5645,PAYLOAD,2023-05-28 06:00:00,14.9937512,0.000297,69.9988,127.4285,275.3746,138.7486,-0.010276,-0.00123879,0.0,0 STARLINK-5645,1 55429U 23014AQ  23148.25001157 -.00123879  00000-0 -10276-1 0  9993,2 55429  69.9988 127.4285 0002970 275.3746 138.7486 14.99375120 18363,6946.963,96.04,570.891,566.765,0.0
55429.0,STARLINK-5645,PAYLOAD,2023-05-28 14:00:01,14.99317898,0.0002848,69.9987,126.5867,276.4522,136.3479,-0.0043982,-0.00053525,0.0,0 STARLINK-5645,1 55429U 23014AQ  23148.58334491 -.00053525  00000-0 -43982-2 0  9990,2 55429  69.9987 126.5867 0002848 276.4522 136.3479 14.99317898 18416,6947.14,96.044,570.983,567.026,0.0
55429.0,STARLINK-5645,PAYLOAD,2023-05-28 22:00:00,14.99291821,0.0002838,69.9993,125.745,270.575,140.869,0.0023592,0.00028885,0.0,0 STARLINK-5645,1 55429U 23014AQ  23148.91667824  .00028885  00000-0  23592-2 0  9990,2 55429  69.9993 125.7450 0002838 270.5750 140.8690 14.99291821  1301,6947.22,96.045,571.057,567.114,0.0
55429.0,STARLINK-5645,PAYLOAD,2023-05-29 06:00:00,14.99291694,0.0002855,69.9996,124.9032,277.1718,132.9241,0.0011625,0.00014156,0.0,0 STARLINK-5645,1 55429U 23014AQ  23149.25001157  .00014156  00000-0  11625-2 0  9999,2 55429  69.9996 124.9032 0002855 277.1718 132.9241 14.99291694 18510,6947.221,96.045,571.069,567.102,0.0
55429.0,STARLINK-5645,PAYLOAD,2023-05-29 14:00:01,14.99324379,0.0002795,69.9993,124.0613,275.9963,132.7414,-0.0038809,-0.00047291,0.0,0 STARLINK-5645,1 55429U 23014AQ  23149.58334491 -.00047291  00000-0 -38809-2 0  9996,2 55429  69.9993 124.0613 0002795 275.9963 132.7414 14.99324379  1300,6947.12,96.043,570.926,567.043,0.0
55429.0,STARLINK-5645,PAYLOAD,2023-05-29 22:00:00,14.99304399,0.0002803,69.9995,123.2195,270.0031,137.3861,0.0019324,0.00023633,0.0,0 STARLINK-5645,1 55429U 23014AQ  23149.91667824  .00023633  00000-0  19324-2 0  9995,2 55429  69.9995 123.2195 0002803 270.0031 137.3861 14.99304399  1307,6947.181,96.045,570.994,567.099,0.0
55429.0,STARLINK-5645,PAYLOAD,2023-05-30 14:00:01,14.9930941,0.0002878,69.9992,121.5358,273.9594,130.7448,-0.0035727,-0.00043549,0.0,0 STARLINK-5645,1 55429U 23014AQ  23150.58334491 -.00043549  00000-0 -35727-2 0  9996,2 55429  69.9992 121.5358 0002878 273.9594 130.7448 14.99309410 18714,6947.166,96.044,571.03,567.031,0.0
55429.0,STARLINK-5645,PAYLOAD,2023-05-31 00:00:02,14.99318483,0.0002931,69.9996,120.4835,269.0243,224.0321,-0.0021651,-0.00026498,0.0,0 STARLINK-5645,1 55429U 23014AQ  23151.00002315 -.00026498  00000-0 -21651-2 0  9996,2 55429  69.9996 120.4835 0002931 269.0243 224.0321 14.99318483  1307,6947.138,96.044,571.039,566.967,0.0
55429.0,STARLINK-5645,PAYLOAD,2023-05-31 06:00:02,14.99294246,0.0002937,69.9995,119.8522,274.0499,128.0048,0.00016216,1.891e-05,0.0,0 STARLINK-5645,1 55429U 23014AQ  23151.25002315  .00001891  00000-0  16216-3 0  9993,2 55429  69.9995 119.8522 0002937 274.0499 128.0048 14.99294246 18819,6947.213,96.045,571.118,567.037,0.0
55429.0,STARLINK-5645,PAYLOAD,2023-05-31 14:00:01,14.99314153,0.0002931,69.9993,119.0103,271.6548,128.9803,-0.0030756,-0.00037539,0.0,0 STARLINK-5645,1 55429U 23014AQ  23151.58334491 -.00037539  00000-0 -30756-2 0  9996,2 55429  69.9993 119.0103 0002931 271.6548 128.9803 14.99314153  1300,6947.151,96.044,571.052,566.98,0.0
55429.0,STARLINK-5645,PAYLOAD,2023-05-31 22:00:00,14.99306162,0.0002964,69.9997,118.1686,266.3507,132.9246,0.0012636,0.00015404,0.0,0 STARLINK-5645,1 55429U 23014AQ  23151.91667824  .00015404  00000-0  12636-2 0  9994,2 55429  69.9997 118.1686 0002964 266.3507 132.9246 14.99306162  1309,6947.176,96.044,571.1,566.982,0.0
55429.0,STARLINK-5645,PAYLOAD,2023-06-01 07:25:58,14.99305072,0.0002739,69.9988,117.1762,270.097,89.9876,-6.4778e-06,-1.73e-06,0.0,0 STARLINK-5645,1 55429U 23014AQ  23152.30971036 -.00000173  00000-0 -64778-5 0  9997,2 55429  69.9988 117.1762 0002739 270.0970  89.9876 14.99305072 19914,6947.179,96.044,570.947,567.141,0.0
55429.0,STARLINK-5645,PAYLOAD,2023-06-02 02:38:51,14.99298296,0.0002813,69.9988,115.1552,270.8414,89.2424,4.0084e-06,-4.5e-07,0.0,0 STARLINK-5645,1 55429U 23014AQ  23153.11031561 -.00000045  00000-0  40084-5 0  9998,2 55429  69.9988 115.1552 0002813 270.8414  89.2424 14.99298296 19093,6947.2,96.045,571.019,567.111,0.0
55429.0,STARLINK-5645,PAYLOAD,2023-06-02 07:27:04,14.99300452,0.0002782,69.9989,114.6494,270.1424,89.9416,2.6776e-05,2.34e-06,0.0,0 STARLINK-5645,1 55429U 23014AQ  23153.31046394  .00000234  00000-0  26776-4 0  9990,2 55429  69.9989 114.6494 0002782 270.1424  89.9416 14.99300452 20067,6947.193,96.045,570.991,567.126,0.0
55429.0,STARLINK-5645,PAYLOAD,2023-06-02 21:51:42,14.9930596,0.0002747,69.999,113.133,270.4124,89.672,1.8388e-05,1.31e-06,0.0,0 STARLINK-5645,1 55429U 23014AQ  23153.91091106  .00000131  00000-0  18388-4 0  9993,2 55429  69.9990 113.1330 0002747 270.4124  89.6720 14.99305960 20157,6947.176,96.044,570.95,567.133,0.0
55429.0,STARLINK-5645,PAYLOAD,2023-06-03 02:39:55,14.99306183,0.0002754,69.9991,112.6276,270.4294,89.655,2.0898e-05,1.62e-06,0.0,0 STARLINK-5645,1 55429U 23014AQ  23154.11106050  .00000162  00000-0  20898-4 0  9994,2 55429  69.9991 112.6276 0002754 270.4294  89.6550 14.99306183 19244,6947.176,96.044,570.954,567.128,0.0
55429.0,STARLINK-5645,PAYLOAD,2023-06-03 07:28:08,14.99307412,0.0002761,69.9992,112.1226,270.6176,89.4667,2.5648e-05,2.2e-06,0.0,0 STARLINK-5645,1 55429U 23014AQ  23154.31120914  .00000220  00000-0  25648-4 0  9994,2 55429  69.9992 112.1226 0002761 270.6176  89.4667 14.99307412 20216,6947.172,96.044,570.955,567.119,0.0
55429.0,STARLINK-5645,PAYLOAD,2023-06-03 21:52:48,14.99295649,0.0002638,69.9997,110.607,267.5427,92.5431,-5.535e-05,-7.71e-06,0.0,0 STARLINK-5645,1 55429U 23014AQ  23154.91166966 -.00000771  00000-0 -55350-4 0  9993,2 55429  69.9997 110.6070 0002638 267.5427  92.5431 14.99295649 20300,6947.208,96.045,570.906,567.241,0.0
55429.0,STARLINK-5645,PAYLOAD,2023-06-04 02:41:01,14.99295168,0.0002642,69.9997,110.1017,267.4106,92.6751,-5.8133e-05,-8.05e-06,0.0,0 STARLINK-5645,1 55429U 23014AQ  23155.11182090 -.00000805  00000-0 -58133-4 0  9992,2 55429  69.9997 110.1017 0002642 267.4106  92.6751 14.99295168 19393,6947.21,96.045,570.91,567.239,0.0
55429.0,STARLINK-5645,PAYLOAD,2023-06-04 07:29:14,14.99296022,0.0002627,69.9997,109.5963,267.3349,92.7509,-4.6468e-05,-6.62e-06,0.0,0 STARLINK-5645,1 55429U 23014AQ  23155.31197088 -.00000662  00000-0 -46468-4 0  9996,2 55429  69.9997 109.5963 0002627 267.3349  92.7509 14.99296022 20367,6947.207,96.045,570.897,567.247,0.0
55429.0,STARLINK-5645,PAYLOAD,2023-06-04 21:53:52,14.99302698,0.0002606,69.9998,108.0801,267.0356,93.0505,-3.4219e-05,-5.12e-06,0.0,0 STARLINK-5645,1 55429U 23014AQ  23155.91241757 -.00000512  00000-0 -34219-4 0  9990,2 55429  69.9998 108.0801 0002606 267.0356  93.0505 14.99302698 20452,6947.187,96.045,570.862,567.241,0.0
55429.0,STARLINK-5645,PAYLOAD,2023-06-05 04:18:10,14.99303985,0.0002632,69.9996,107.406,267.5819,92.5039,-1.8093e-05,-3.15e-06,0.0,0 STARLINK-5645,1 55429U 23014AQ  23156.17928314 -.00000315  00000-0 -18093-4 0  9993,2 55429  69.9996 107.4060 0002632 267.5819  92.5039 14.99303985 19553,6947.183,96.045,570.876,567.219,0.0
55429.0,STARLINK-5645,PAYLOAD,2023-06-05 13:54:36,14.99297436,0.0002605,69.9997,106.3949,268.7998,91.2863,-3.1406e-05,-4.78e-06,0.0,0 STARLINK-5645,1 55429U 23014AQ  23156.57958805 -.00000478  00000-0 -31406-4 0  9998,2 55429  69.9997 106.3949 0002605 268.7998  91.2863 14.99297436 20555,6947.203,96.045,570.878,567.258,0.0
55429.0,STARLINK-5645,PAYLOAD,2023-06-06 05:55:19,14.99296236,0.0002628,69.9996,104.7096,266.5931,93.4928,3.6488e-05,3.53e-06,0.0,0 STARLINK-5645,1 55429U 23014AQ  23157.24675613  .00000353  00000-0  36488-4 0  9991,2 55429  69.9996 104.7096 0002628 266.5931  93.4928 14.99296236 20651,6947.206,96.045,570.897,567.246,0.0
55429.0,STARLINK-5645,PAYLOAD,2023-06-06 20:19:58,14.9929903,0.0002619,69.9999,103.1933,265.2237,94.8623,-3.3313e-05,-5.01e-06,0.0,0 STARLINK-5645,1 55429U 23014AQ  23157.84720860 -.00000501  00000-0 -33313-4 0  9993,2 55429  69.9999 103.1933 0002619 265.2237  94.8623 14.99299030 20744,6947.198,96.045,570.882,567.243,0.0
55429.0,STARLINK-5645,PAYLOAD,2023-06-06 23:32:07,14.99300399,0.0002685,69.9997,102.8563,265.9666,94.1187,-1.8612e-05,-3.22e-06,0.0,0 STARLINK-5645,1 55429U 23014AQ  23157.98064099 -.00000322  00000-0 -18612-4 0  9999,2 55429  69.9997 102.8563 0002685 265.9666  94.1187 14.99300399 19829,6947.194,96.045,570.924,567.193,0.0
55429.0,STARLINK-5645,PAYLOAD,2023-06-07 05:56:24,14.99300197,0.0002692,69.9998,102.1824,266.1136,93.9716,-1.8241e-05,-3.17e-06,0.0,0 STARLINK-5645,1 55429U 23014AQ  23158.24750841 -.00000317  00000-0 -18241-4 0  9998,2 55429  69.9998 102.1824 0002692 266.1136  93.9716 14.99300197 20807,6947.194,96.045,570.929,567.189,0.0
55429.0,STARLINK-5645,PAYLOAD,2023-06-07 21:57:08,14.99297786,0.0002764,69.9999,100.4994,269.1044,90.9799,1.0918e-05,4e-07,0.0,0 STARLINK-5645,1 55429U 23014AQ  23158.91467758  .00000040  00000-0  10918-4 0  9998,2 55429  69.9999 100.4994 0002764 269.1044  90.9799 14.99297786 20906,6947.202,96.045,570.987,567.146,0.0
55429.0,STARLINK-5645,PAYLOAD,2023-06-08 02:45:20,14.99300209,0.0002768,69.9998,99.9931,267.1559,92.9284,2.0449e-05,1.56e-06,0.0,0 STARLINK-5645,1 55429U 23014AQ  23159.11482619  .00000156  00000-0  20449-4 0  9992,2 55429  69.9998  99.9931 0002768 267.1559  92.9284 14.99300209 19994,6947.194,96.045,570.982,567.136,0.0
55429.0,STARLINK-5645,PAYLOAD,2023-06-08 13:57:51,14.99299623,0.0002761,69.9998,98.8135,267.7255,92.3588,1.8503e-05,1.33e-06,0.0,0 STARLINK-5645,1 55429U 23014AQ  23159.58184422  .00000133  00000-0  18503-4 0  9997,2 55429  69.9998  98.8135 0002761 267.7255  92.3588 14.99299623 21003,6947.196,96.045,570.979,567.143,0.0
